KUIPER-00044            
1 64505U 25134F   26020.46633427  .00009152  00000+0  12280-2 0  9991
2 64505  51.8996  99.8362 0011201 112.2280 247.9871 14.79895896 32748
KUIPER-00046            
1 64506U 25134G   26020.91668981  .00009274  00000+0  12763-2 0  9996
2 64506  51.8985  94.2962 0003800 135.9158  88.7299 14.78836209  5516
KUIPER-00047            
1 64507U 25134H   26020.53427515  .00012773  00000+0  18355-2 0  9992
2 64507  51.8990  67.8172 0001624   6.1804 353.9177 14.76698334 33191
KUIPER-00048            
1 64508U 25134J   26020.50036488  .00034114  00000+0  44849-2 0  9995
2 64508  51.9000  68.6751 0002034 282.2534  77.8200 14.79897833 33186
KUIPER-00049            
1 64509U 25134K   26020.41753919  .00005768  00000+0  78479-3 0  9991
2 64509  51.9002  82.5137 0002076 137.3146 222.7978 14.79947506 32980
KUIPER-00050            
1 64510U 25134L   26020.43510313  .00011764  00000+0  10302-2 0  9997
2 64510  51.8901  71.2669 0004713 146.7442 213.3825 14.97058524 33146
KUIPER-00051            
1 64511U 25134M   26020.55541942  .00006955  00000+0  94096-3 0  9992
2 64511  51.9018  79.4761 0001428 142.0551 218.0512 14.79906541 33034
KUIPER-00052            
1 64512U 25134N   26020.91668981  .00116136  00000+0  56416-3 0  9993
2 64512  51.8570 353.9096 0003361 123.8073  64.3619 15.81585575  5776
