<?xml version="1.0" encoding="UTF-8"?>
<ndm xmlns:xsi="http://www.w3.org/2001/XMLSchema-instance" xsi:noNamespaceSchemaLocation="https://sanaregistry.org/r/ndmxml_unqualified/ndmxml-2.0.0-master-2.0.xsd">
<omm id="CCSDS_OMM_VERS" version="2.0">
<header><CREATION_DATE/><ORIGINATOR/></header><body><segment><metadata><OBJECT_NAME>KUIPER-00044</OBJECT_NAME><OBJECT_ID>2025-134F</OBJECT_ID><CENTER_NAME>EARTH</CENTER_NAME><REF_FRAME>TEME</REF_FRAME><TIME_SYSTEM>UTC</TIME_SYSTEM><MEAN_ELEMENT_THEORY>SGP4</MEAN_ELEMENT_THEORY></metadata><data><meanElements><EPOCH>2026-01-20T11:11:31.280928</EPOCH><MEAN_MOTION>14.79895896</MEAN_MOTION><ECCENTRICITY>.00112012</ECCENTRICITY><INCLINATION>51.8996</INCLINATION><RA_OF_ASC_NODE>99.8362</RA_OF_ASC_NODE><ARG_OF_PERICENTER>112.2280</ARG_OF_PERICENTER><MEAN_ANOMALY>247.9871</MEAN_ANOMALY></meanElements><tleParameters><EPHEMERIS_TYPE>0</EPHEMERIS_TYPE><CLASSIFICATION_TYPE>U</CLASSIFICATION_TYPE><NORAD_CAT_ID>64505</NORAD_CAT_ID><ELEMENT_SET_NO>999</ELEMENT_SET_NO><REV_AT_EPOCH>3274</REV_AT_EPOCH><BSTAR>.12280459E-2</BSTAR><MEAN_MOTION_DOT>.9152E-4</MEAN_MOTION_DOT><MEAN_MOTION_DDOT>0</MEAN_MOTION_DDOT></tleParameters></data></segment></body></omm>
<omm id="CCSDS_OMM_VERS" version="2.0">
<header><CREATION_DATE/><ORIGINATOR/></header><body><segment><metadata><OBJECT_NAME>KUIPER-00046</OBJECT_NAME><OBJECT_ID>2025-134G</OBJECT_ID><CENTER_NAME>EARTH</CENTER_NAME><REF_FRAME>TEME</REF_FRAME><TIME_SYSTEM>UTC</TIME_SYSTEM><MEAN_ELEMENT_THEORY>SGP4</MEAN_ELEMENT_THEORY></metadata><data><meanElements><EPOCH>2026-01-20T22:00:01.999584</EPOCH><MEAN_MOTION>14.78836209</MEAN_MOTION><ECCENTRICITY>.00038005</ECCENTRICITY><INCLINATION>51.8985</INCLINATION><RA_OF_ASC_NODE>94.2962</RA_OF_ASC_NODE><ARG_OF_PERICENTER>135.9158</ARG_OF_PERICENTER><MEAN_ANOMALY>88.7299</MEAN_ANOMALY></meanElements><tleParameters><EPHEMERIS_TYPE>0</EPHEMERIS_TYPE><CLASSIFICATION_TYPE>U</CLASSIFICATION_TYPE><NORAD_CAT_ID>64506</NORAD_CAT_ID><ELEMENT_SET_NO>999</ELEMENT_SET_NO><REV_AT_EPOCH>551</REV_AT_EPOCH><BSTAR>.12762814E-2</BSTAR><MEAN_MOTION_DOT>.9274E-4</MEAN_MOTION_DOT><MEAN_MOTION_DDOT>0</MEAN_MOTION_DDOT></tleParameters></data></segment></body></omm>
<omm id="CCSDS_OMM_VERS" version="2.0">
<header><CREATION_DATE/><ORIGINATOR/></header><body><segment><metadata><OBJECT_NAME>KUIPER-00047</OBJECT_NAME><OBJECT_ID>2025-134H</OBJECT_ID><CENTER_NAME>EARTH</CENTER_NAME><REF_FRAME>TEME</REF_FRAME><TIME_SYSTEM>UTC</TIME_SYSTEM><MEAN_ELEMENT_THEORY>SGP4</MEAN_ELEMENT_THEORY></metadata><data><meanElements><EPOCH>2026-01-20T12:49:21.372960</EPOCH><MEAN_MOTION>14.76698334</MEAN_MOTION><ECCENTRICITY>.00016247</ECCENTRICITY><INCLINATION>51.8990</INCLINATION><RA_OF_ASC_NODE>67.8172</RA_OF_ASC_NODE><ARG_OF_PERICENTER>6.1804</ARG_OF_PERICENTER><MEAN_ANOMALY>353.9177</MEAN_ANOMALY></meanElements><tleParameters><EPHEMERIS_TYPE>0</EPHEMERIS_TYPE><CLASSIFICATION_TYPE>U</CLASSIFICATION_TYPE><NORAD_CAT_ID>64507</NORAD_CAT_ID><ELEMENT_SET_NO>999</ELEMENT_SET_NO><REV_AT_EPOCH>3319</REV_AT_EPOCH><BSTAR>.18355417E-2</BSTAR><MEAN_MOTION_DOT>.12773E-3</MEAN_MOTION_DOT><MEAN_MOTION_DDOT>0</MEAN_MOTION_DDOT></tleParameters></data></segment></body></omm>
<omm id="CCSDS_OMM_VERS" version="2.0">
<header><CREATION_DATE/><ORIGINATOR/></header><body><segment><metadata><OBJECT_NAME>KUIPER-00048</OBJECT_NAME><OBJECT_ID>2025-134J</OBJECT_ID><CENTER_NAME>EARTH</CENTER_NAME><REF_FRAME>TEME</REF_FRAME><TIME_SYSTEM>UTC</TIME_SYSTEM><MEAN_ELEMENT_THEORY>SGP4</MEAN_ELEMENT_THEORY></metadata><data><meanElements><EPOCH>2026-01-20T12:00:31.525632</EPOCH><MEAN_MOTION>14.79897833</MEAN_MOTION><ECCENTRICITY>.00020346</ECCENTRICITY><INCLINATION>51.9000</INCLINATION><RA_OF_ASC_NODE>68.6751</RA_OF_ASC_NODE><ARG_OF_PERICENTER>282.2534</ARG_OF_PERICENTER><MEAN_ANOMALY>77.8200</MEAN_ANOMALY></meanElements><tleParameters><EPHEMERIS_TYPE>0</EPHEMERIS_TYPE><CLASSIFICATION_TYPE>U</CLASSIFICATION_TYPE><NORAD_CAT_ID>64508</NORAD_CAT_ID><ELEMENT_SET_NO>999</ELEMENT_SET_NO><REV_AT_EPOCH>3318</REV_AT_EPOCH><BSTAR>.44848813E-2</BSTAR><MEAN_MOTION_DOT>.34114E-3</MEAN_MOTION_DOT><MEAN_MOTION_DDOT>0</MEAN_MOTION_DDOT></tleParameters></data></segment></body></omm>
<omm id="CCSDS_OMM_VERS" version="2.0">
<header><CREATION_DATE/><ORIGINATOR/></header><body><segment><metadata><OBJECT_NAME>KUIPER-00049</OBJECT_NAME><OBJECT_ID>2025-134K</OBJECT_ID><CENTER_NAME>EARTH</CENTER_NAME><REF_FRAME>TEME</REF_FRAME><TIME_SYSTEM>UTC</TIME_SYSTEM><MEAN_ELEMENT_THEORY>SGP4</MEAN_ELEMENT_THEORY></metadata><data><meanElements><EPOCH>2026-01-20T10:01:15.386016</EPOCH><MEAN_MOTION>14.79947506</MEAN_MOTION><ECCENTRICITY>.00020761</ECCENTRICITY><INCLINATION>51.9002</INCLINATION><RA_OF_ASC_NODE>82.5137</RA_OF_ASC_NODE><ARG_OF_PERICENTER>137.3146</ARG_OF_PERICENTER><MEAN_ANOMALY>222.7978</MEAN_ANOMALY></meanElements><tleParameters><EPHEMERIS_TYPE>0</EPHEMERIS_TYPE><CLASSIFICATION_TYPE>U</CLASSIFICATION_TYPE><NORAD_CAT_ID>64509</NORAD_CAT_ID><ELEMENT_SET_NO>999</ELEMENT_SET_NO><REV_AT_EPOCH>3298</REV_AT_EPOCH><BSTAR>.7847879E-3</BSTAR><MEAN_MOTION_DOT>.5768E-4</MEAN_MOTION_DOT><MEAN_MOTION_DDOT>0</MEAN_MOTION_DDOT></tleParameters></data></segment></body></omm>
<omm id="CCSDS_OMM_VERS" version="2.0">
<header><CREATION_DATE/><ORIGINATOR/></header><body><segment><metadata><OBJECT_NAME>KUIPER-00050</OBJECT_NAME><OBJECT_ID>2025-134L</OBJECT_ID><CENTER_NAME>EARTH</CENTER_NAME><REF_FRAME>TEME</REF_FRAME><TIME_SYSTEM>UTC</TIME_SYSTEM><MEAN_ELEMENT_THEORY>SGP4</MEAN_ELEMENT_THEORY></metadata><data><meanElements><EPOCH>2026-01-20T10:26:32.910432</EPOCH><MEAN_MOTION>14.97058524</MEAN_MOTION><ECCENTRICITY>.00047138</ECCENTRICITY><INCLINATION>51.8901</INCLINATION><RA_OF_ASC_NODE>71.2669</RA_OF_ASC_NODE><ARG_OF_PERICENTER>146.7442</ARG_OF_PERICENTER><MEAN_ANOMALY>213.3825</MEAN_ANOMALY></meanElements><tleParameters><EPHEMERIS_TYPE>0</EPHEMERIS_TYPE><CLASSIFICATION_TYPE>U</CLASSIFICATION_TYPE><NORAD_CAT_ID>64510</NORAD_CAT_ID><ELEMENT_SET_NO>999</ELEMENT_SET_NO><REV_AT_EPOCH>3314</REV_AT_EPOCH><BSTAR>.10301742E-2</BSTAR><MEAN_MOTION_DOT>.11764E-3</MEAN_MOTION_DOT><MEAN_MOTION_DDOT>0</MEAN_MOTION_DDOT></tleParameters></data></segment></body></omm>
<omm id="CCSDS_OMM_VERS" version="2.0">
<header><CREATION_DATE/><ORIGINATOR/></header><body><segment><metadata><OBJECT_NAME>KUIPER-00051</OBJECT_NAME><OBJECT_ID>2025-134M</OBJECT_ID><CENTER_NAME>EARTH</CENTER_NAME><REF_FRAME>TEME</REF_FRAME><TIME_SYSTEM>UTC</TIME_SYSTEM><MEAN_ELEMENT_THEORY>SGP4</MEAN_ELEMENT_THEORY></metadata><data><meanElements><EPOCH>2026-01-20T13:19:48.237888</EPOCH><MEAN_MOTION>14.79906541</MEAN_MOTION><ECCENTRICITY>.00014283</ECCENTRICITY><INCLINATION>51.9018</INCLINATION><RA_OF_ASC_NODE>79.4761</RA_OF_ASC_NODE><ARG_OF_PERICENTER>142.0551</ARG_OF_PERICENTER><MEAN_ANOMALY>218.0512</MEAN_ANOMALY></meanElements><tleParameters><EPHEMERIS_TYPE>0</EPHEMERIS_TYPE><CLASSIFICATION_TYPE>U</CLASSIFICATION_TYPE><NORAD_CAT_ID>64511</NORAD_CAT_ID><ELEMENT_SET_NO>999</ELEMENT_SET_NO><REV_AT_EPOCH>3303</REV_AT_EPOCH><BSTAR>.94096406E-3</BSTAR><MEAN_MOTION_DOT>.6955E-4</MEAN_MOTION_DOT><MEAN_MOTION_DDOT>0</MEAN_MOTION_DDOT></tleParameters></data></segment></body></omm>
<omm id="CCSDS_OMM_VERS" version="2.0">
<header><CREATION_DATE/><ORIGINATOR/></header><body><segment><metadata><OBJECT_NAME>KUIPER-00052</OBJECT_NAME><OBJECT_ID>2025-134N</OBJECT_ID><CENTER_NAME>EARTH</CENTER_NAME><REF_FRAME>TEME</REF_FRAME><TIME_SYSTEM>UTC</TIME_SYSTEM><MEAN_ELEMENT_THEORY>SGP4</MEAN_ELEMENT_THEORY></metadata><data><meanElements><EPOCH>2026-01-20T22:00:01.999584</EPOCH><MEAN_MOTION>15.81585575</MEAN_MOTION><ECCENTRICITY>.00033618</ECCENTRICITY><INCLINATION>51.8570</INCLINATION><RA_OF_ASC_NODE>353.9096</RA_OF_ASC_NODE><ARG_OF_PERICENTER>123.8073</ARG_OF_PERICENTER><MEAN_ANOMALY>64.3619</MEAN_ANOMALY></meanElements><tleParameters><EPHEMERIS_TYPE>0</EPHEMERIS_TYPE><CLASSIFICATION_TYPE>U</CLASSIFICATION_TYPE><NORAD_CAT_ID>64512</NORAD_CAT_ID><ELEMENT_SET_NO>999</ELEMENT_SET_NO><REV_AT_EPOCH>577</REV_AT_EPOCH><BSTAR>.56416183E-3</BSTAR><MEAN_MOTION_DOT>.116136E-2</MEAN_MOTION_DOT><MEAN_MOTION_DDOT>0</MEAN_MOTION_DDOT></tleParameters></data></segment></body></omm>

</ndm>
